NORAD_CAT_ID,OBJECT_NAME,OBJECT_TYPE,EPOCH,MEAN_MOTION,ECCENTRICITY,INCLINATION,RA_OF_ASC_NODE,ARG_OF_PERICENTER,MEAN_ANOMALY,BSTAR,MEAN_MOTION_DOT,MEAN_MOTION_DDOT,TLE_LINE0,TLE_LINE1,TLE_LINE2,SEMIMAJOR_AXIS,PERIOD,APOGEE,PERIGEE,DECAYED
53976.0,STARLINK-5134,PAYLOAD,2023-02-04 13:04:11,15.08845119,0.0001125,53.2154,232.8233,77.1033,283.0085,0.0001714,2.441e-05,0.0,0 STARLINK-5134,1 53976U 22125N   23035.54457607  .00002441  00000-0  17140-3 0  9990,2 53976  53.2154 232.8233 0001125  77.1033 283.0085 15.08845119 19148,6917.865,95.437,540.508,538.951,0.0
53976.0,STARLINK-5134,PAYLOAD,2023-02-04 19:25:43,15.08849371,0.0001092,53.2156,231.6335,83.4074,276.7043,0.0001836,2.636e-05,0.0,0 STARLINK-5134,1 53976U 22125N   23035.80953277  .00002636  00000-0  18360-3 0  9994,2 53976  53.2156 231.6335 0001092  83.4074 276.7043 15.08849371 19189,6917.852,95.437,540.472,538.961,0.0
53976.0,STARLINK-5134,PAYLOAD,2023-02-05 09:44:12,15.08840796,0.0001045,53.2159,228.9574,82.6019,277.5092,0.00011131,1.484e-05,0.0,0 STARLINK-5134,1 53976U 22125N   23036.40569635  .00001484  00000-0  11131-3 0  9991,2 53976  53.2159 228.9574 0001045  82.6019 277.5092 15.08840796 19347,6917.878,95.438,540.466,539.02,0.0
53976.0,STARLINK-5134,PAYLOAD,2023-02-05 12:54:58,15.08838971,0.0001121,53.2158,228.363,81.6583,278.4536,5.4656e-05,5.82e-06,0.0,0 STARLINK-5134,1 53976U 22125N   23036.53817738  .00000582  00000-0  54656-4 0  9993,2 53976  53.2158 228.3630 0001121  81.6583 278.4536 15.08838971 19292,6917.884,95.438,540.524,538.973,0.0
53976.0,STARLINK-5134,PAYLOAD,2023-02-05 19:16:30,15.08841064,0.0001053,53.2171,227.1732,85.3645,274.7467,6.9324e-05,8.16e-06,0.0,0 STARLINK-5134,1 53976U 22125N   23036.80313561  .00000816  00000-0  69324-4 0  9996,2 53976  53.2171 227.1732 0001053  85.3645 274.7467 15.08841064 19335,6917.877,95.437,540.471,539.014,0.0
53976.0,STARLINK-5134,PAYLOAD,2023-02-06 12:45:45,15.08840742,0.0001068,53.2171,223.9024,85.3083,274.8032,7.7802e-06,-1.64e-06,0.0,0 STARLINK-5134,1 53976U 22125N   23037.53177713 -.00000164  00000-0  77802-5 0  9992,2 53976  53.2171 223.9024 0001068  85.3083 274.8032 15.08840742 19448,6917.878,95.438,540.482,539.004,0.0
53976.0,STARLINK-5134,PAYLOAD,2023-02-06 19:07:17,15.08843381,0.0001062,53.217,222.7129,85.5663,274.545,2.4491e-05,1.02e-06,0.0,0 STARLINK-5134,1 53976U 22125N   23037.79673416  .00000102  00000-0  24491-4 0  9997,2 53976  53.2170 222.7129 0001062  85.5663 274.5450 15.08843381 19555,6917.87,95.437,540.47,539.0,0.0
53976.0,STARLINK-5134,PAYLOAD,2023-02-07 11:01:09,15.08836927,0.0001102,53.2169,219.7394,85.8734,274.2384,7.2522e-05,8.66e-06,0.0,0 STARLINK-5134,1 53976U 22125N   23038.45913720  .00000866  00000-0  72522-4 0  9991,2 53976  53.2169 219.7394 0001102  85.8734 274.2384 15.08836927 19584,6917.89,95.438,540.517,538.992,0.0
53976.0,STARLINK-5134,PAYLOAD,2023-02-07 17:22:41,15.08840269,0.0001076,53.2171,218.55,86.7525,273.359,9.1496e-05,1.169e-05,0.0,0 STARLINK-5134,1 53976U 22125N   23038.72409506  .00001169  00000-0  91496-4 0  9991,2 53976  53.2171 218.5500 0001076  86.7525 273.3590 15.08840269 19629,6917.88,95.438,540.489,539.0,0.0
53976.0,STARLINK-5134,PAYLOAD,2023-02-08 04:30:23,15.08843316,9.59e-05,53.2182,216.4681,76.5637,283.5462,9.9297e-05,1.293e-05,0.0,0 STARLINK-5134,1 53976U 22125N   23039.18777317  .00001293  00000-0  99297-4 0  9995,2 53976  53.2182 216.4681 0000959  76.5637 283.5462 15.08843316 19760,6917.87,95.437,540.399,539.072,0.0
53976.0,STARLINK-5134,PAYLOAD,2023-02-08 18:48:52,15.08833493,0.0001279,53.2171,213.7925,83.9312,276.1826,4.4586e-05,4.22e-06,0.0,0 STARLINK-5134,1 53976U 22125N   23039.78394470  .00000422  00000-0  44586-4 0  9990,2 53976  53.2171 213.7925 0001279  83.9312 276.1826 15.08833493 19854,6917.9,95.438,540.65,538.88,0.0
53976.0,STARLINK-5134,PAYLOAD,2023-02-09 04:21:11,15.08838087,0.0001264,53.2174,212.0084,86.4063,273.7073,5.8994e-05,6.51e-06,0.0,0 STARLINK-5134,1 53976U 22125N   23040.18138283  .00000651  00000-0  58994-4 0  9996,2 53976  53.2174 212.0084 0001264  86.4063 273.7073 15.08838087 19840,6917.886,95.438,540.626,538.877,0.0
53976.0,STARLINK-5134,PAYLOAD,2023-02-09 18:39:39,15.08843521,0.0001255,53.2167,209.332,87.0235,273.09,0.00014338,1.995e-05,0.0,0 STARLINK-5134,1 53976U 22125N   23040.77753877  .00001995  00000-0  14338-3 0  9998,2 53976  53.2167 209.3320 0001255  87.0235 273.0900 15.08843521 20003,6917.87,95.437,540.603,538.866,0.0
53976.0,STARLINK-5134,PAYLOAD,2023-02-10 15:19:40,15.08832718,0.0001161,53.2172,205.4656,94.7789,265.3336,0.00034015,5.129e-05,0.0,0 STARLINK-5134,1 53976U 22125N   23041.63866661  .00005129  00000-0  34015-3 0  9997,2 53976  53.2172 205.4656 0001161  94.7789 265.3336 15.08832718 20130,6917.903,95.438,540.571,538.964,0.0
53976.0,STARLINK-5134,PAYLOAD,2023-02-10 16:55:03,15.08841682,0.0001187,53.2172,205.1682,94.6189,265.4939,0.00013409,1.847e-05,0.0,0 STARLINK-5134,1 53976U 22125N   23041.70490099  .00001847  00000-0  13409-3 0  9990,2 53976  53.2172 205.1682 0001187  94.6189 265.4939 15.08841682 20070,6917.875,95.437,540.561,538.919,0.0
53976.0,STARLINK-5134,PAYLOAD,2023-02-10 23:16:35,15.08855486,0.0001065,53.217,203.9781,100.8262,259.285,0.00030998,4.651e-05,0.0,0 STARLINK-5134,1 53976U 22125N   23041.96985279  .00004651  00000-0  30998-3 0  9995,2 53976  53.2170 203.9781 0001065 100.8262 259.2850 15.08855486 20183,6917.833,95.437,540.435,538.961,0.0
53976.0,STARLINK-5134,PAYLOAD,2023-02-11 04:02:45,15.08842865,0.0001352,53.2182,203.0883,81.3649,278.7496,0.00015323,2.152e-05,0.0,0 STARLINK-5134,1 53976U 22125N   23042.16858183  .00002152  00000-0  15323-3 0  9990,2 53976  53.2182 203.0883 0001352  81.3649 278.7496 15.08842865 20214,6917.872,95.437,540.672,538.801,0.0
53976.0,STARLINK-5134,PAYLOAD,2023-02-11 13:35:04,15.08834332,8.55e-05,53.2194,201.3006,96.1282,263.9807,1.6779e-05,-2.1e-07,0.0,0 STARLINK-5134,1 53976U 22125N   23042.56602453 -.00000021  00000-0  16779-4 0  9992,2 53976  53.2194 201.3006 0000855  96.1282 263.9807 15.08834332 20200,6917.898,95.438,540.354,539.171,0.0
53976.0,STARLINK-5134,PAYLOAD,2023-02-11 19:56:36,15.08855271,0.0001248,53.2171,200.1133,84.0749,276.0385,0.00039037,5.933e-05,0.0,0 STARLINK-5134,1 53976U 22125N   23042.83097648  .00005933  00000-0  39037-3 0  9993,2 53976  53.2171 200.1133 0001248  84.0749 276.0385 15.08855271 20249,6917.834,95.437,540.562,538.835,0.0
53976.0,STARLINK-5134,PAYLOAD,2023-02-11 21:31:59,15.08858819,0.0001209,53.2172,199.8162,87.4673,272.6457,0.00058717,9.074e-05,0.0,0 STARLINK-5134,1 53976U 22125N   23042.89721584  .00009074  00000-0  58717-3 0  9998,2 53976  53.2172 199.8162 0001209  87.4673 272.6457 15.08858819 20328,6917.823,95.436,540.524,538.852,0.0
53976.0,STARLINK-5134,PAYLOAD,2023-02-12 10:15:05,15.08840788,0.0001332,53.2162,197.4353,101.6986,258.4156,0.00024725,3.649e-05,0.0,0 STARLINK-5134,1 53976U 22125N   23043.42714329  .00003649  00000-0  24725-3 0  9991,2 53976  53.2162 197.4353 0001332 101.6986 258.4156 15.08840788 20409,6917.878,95.438,540.664,538.822,0.0
53976.0,STARLINK-5134,PAYLOAD,2023-02-12 11:50:28,15.08842493,0.0001292,53.2166,197.1381,101.0503,259.0634,0.00044806,6.851e-05,0.0,0 STARLINK-5134,1 53976U 22125N   23043.49338314  .00006851  00000-0  44806-3 0  9994,2 53976  53.2166 197.1381 0001292 101.0503 259.0634 15.08842493 20341,6917.873,95.437,540.632,538.844,0.0
53976.0,STARLINK-5134,PAYLOAD,2023-02-12 16:36:37,15.08852271,0.0001292,53.2166,196.2468,99.5834,260.5304,0.0007412,0.00011532,0.0,0 STARLINK-5134,1 53976U 22125N   23043.69210187  .00011532  00000-0  74120-3 0  9997,2 53976  53.2166 196.2468 0001292  99.5834 260.5304 15.08852271 20442,6917.843,95.437,540.602,538.814,0.0
53976.0,STARLINK-5134,PAYLOAD,2023-02-13 10:05:52,15.08855781,0.0001349,53.2174,192.9777,80.1568,279.9577,0.0016279,0.00025726,0.0,0 STARLINK-5134,1 53976U 22125N   23044.42074646  .00025726  00000-0  16279-2 0  9997,2 53976  53.2174 192.9777 0001349  80.1568 279.9577 15.08855781 20557,6917.832,95.437,540.63,538.764,0.0
53976.0,STARLINK-5134,PAYLOAD,2023-02-13 13:16:38,15.0885181,0.0001122,53.2177,192.3836,68.1149,291.9963,0.0012267,0.00019295,0.0,0 STARLINK-5134,1 53976U 22125N   23044.55322597  .00019295  00000-0  12267-2 0  9999,2 53976  53.2177 192.3836 0001122  68.1149 291.9963 15.08851810 20507,6917.844,95.437,540.485,538.933,0.0
53976.0,STARLINK-5134,PAYLOAD,2023-02-13 16:27:24,15.08851888,0.0001147,53.2175,191.788,85.7723,274.3401,0.00095481,0.00014945,0.0,0 STARLINK-5134,1 53976U 22125N   23044.68570453  .00014945  00000-0  95481-3 0  9996,2 53976  53.2175 191.7880 0001147  85.7723 274.3401 15.08851888 20593,6917.844,95.437,540.503,538.916,0.0
53976.0,STARLINK-5134,PAYLOAD,2023-02-14 09:56:39,15.08851159,0.0001041,53.2171,188.517,95.8036,264.3075,0.00037418,5.674e-05,0.0,0 STARLINK-5134,1 53976U 22125N   23045.41434429  .00005674  00000-0  37418-3 0  9995,2 53976  53.2171 188.5170 0001041  95.8036 264.3075 15.08851159 20707,6917.846,95.437,540.431,538.991,0.0
53976.0,STARLINK-5134,PAYLOAD,2023-02-14 16:18:11,15.088523,0.0001097,53.2167,187.3293,96.5702,263.5415,0.00054223,8.355e-05,0.0,0 STARLINK-5134,1 53976U 22125N   23045.67930235  .00008355  00000-0  54223-3 0  9991,2 53976  53.2167 187.3293 0001097  96.5702 263.5415 15.08852300 20678,6917.843,95.437,540.467,538.949,0.0
53976.0,STARLINK-5134,PAYLOAD,2023-02-15 12:58:12,15.08845761,7.89e-05,53.2169,183.462,82.418,277.6902,0.00024277,3.579e-05,0.0,0 STARLINK-5134,1 53976U 22125N   23046.54042300  .00003579  00000-0  24277-3 0  9994,2 53976  53.2169 183.4620 0000789  82.4180 277.6902 15.08845761 20807,6917.863,95.437,540.274,539.182,0.0
53976.0,STARLINK-5134,PAYLOAD,2023-02-15 16:08:58,15.08857874,0.0001013,53.2162,182.8675,98.4816,261.6291,0.00057533,8.885e-05,0.0,0 STARLINK-5134,1 53976U 22125N   23046.67289863  .00008885  00000-0  57533-3 0  9991,2 53976  53.2162 182.8675 0001013  98.4816 261.6291 15.08857874 20898,6917.826,95.436,540.392,538.99,0.0
